{"nbformat":4,"nbformat_minor":5,"metadata":{"kernelspec":{"display_name":"Python 3","language":"python","name":"python3"},"language_info":{"name":"python","version":"3.10.0"},"colab":{"provenance":[]}},"cells":[{"cell_type":"markdown","id":"a1b2c3d4","metadata":{"id":"a1b2c3d4"},"source":["# Búsqueda de días con transición convectiva en Bogotá (SKBO)\n","\n","Este notebook descarga reportes METAR del aeropuerto El Dorado (SKBO) desde OGIMET\n","y busca días donde se observa la secuencia:\n","\n","**Cielo despejado → Desarrollo de nube convectiva (TCU) → Tormenta/lluvia fuerte (CB, TSRA)**\n","\n","Esa secuencia representa el ciclo diurno típico de convección en la Sabana de Bogotá,\n","que es exactamente el fenómeno que la tesis busca predecir con anticipación de 4-6 horas."]},{"cell_type":"markdown","id":"b2c3d4e5","metadata":{"id":"b2c3d4e5"},"source":["## Celda 1 — Librerías"]},{"cell_type":"code","execution_count":1,"id":"c3d4e5f6","metadata":{"id":"c3d4e5f6","executionInfo":{"status":"ok","timestamp":1781135695066,"user_tz":300,"elapsed":836,"user":{"displayName":"Diana Bohórquez","userId":"16851262590754706221"}}},"outputs":[],"source":["import requests\n","import pandas as pd\n","from datetime import datetime, timedelta\n","import re\n","import time"]},{"cell_type":"markdown","id":"d4e5f6g7","metadata":{"id":"d4e5f6g7"},"source":["## Celda 2 — Parámetros de búsqueda\n","Aquí se definen qué meses se van a consultar.\n","\n","Cambiar `MESES_A_CONSULTAR` para ampliar o reducir la búsqueda."]},{"cell_type":"code","execution_count":2,"id":"e5f6g7h8","metadata":{"colab":{"base_uri":"https://localhost:8080/"},"id":"e5f6g7h8","executionInfo":{"status":"ok","timestamp":1781135787856,"user_tz":300,"elapsed":59,"user":{"displayName":"Diana Bohórquez","userId":"16851262590754706221"}},"outputId":"16d37dfa-33aa-4258-c2d4-1df6379d3182"},"outputs":[{"output_type":"stream","name":"stdout","text":["Parámetros cargados correctamente.\n","Estación: SKBO\n","Meses a consultar: [(2024, 3), (2024, 4), (2024, 10)]\n"]}],"source":["# Estación meteorológica: El Dorado, Bogotá\n","ESTACION = 'SKBO'\n","\n","# Meses a consultar: lista de tuplas (año, mes)\n","# Bogotá tiene dos temporadas de lluvia: marzo-mayo y septiembre-noviembre\n","# Empezamos con los meses más lluviosos de 2024\n","MESES_A_CONSULTAR = [\n","    (2024, 3),   # marzo 2024\n","    (2024, 4),   # abril 2024\n","    (2024, 10),  # octubre 2024\n","]\n","\n","# Palabras clave para cada etapa de la secuencia convectiva\n","CLAVES_DESPEJADO  = ['SKC', 'FEW', 'NSC', 'CAVOK']          # cielo limpio o pocas nubes\n","CLAVES_DESARROLLO = ['TCU']                                 # cumulonimbo en desarrollo\n","CLAVES_TORMENTA   = ['CB', 'TSRA', '+TSRA', '+RA', 'TS']    # tormenta activa\n","\n","print('Parámetros cargados correctamente.')\n","print(f'Estación: {ESTACION}')\n","print(f'Meses a consultar: {MESES_A_CONSULTAR}')"]},{"cell_type":"markdown","id":"f6g7h8i9","metadata":{"id":"f6g7h8i9"},"source":["## Celda 3 — Función de descarga\n","Esta función le pide a OGIMET los reportes METAR de un mes completo\n","y los devuelve como una lista de líneas de texto."]},{"cell_type":"code","execution_count":6,"id":"g7h8i9j0","metadata":{"colab":{"base_uri":"https://localhost:8080/"},"id":"g7h8i9j0","executionInfo":{"status":"ok","timestamp":1781136267929,"user_tz":300,"elapsed":51,"user":{"displayName":"Diana Bohórquez","userId":"16851262590754706221"}},"outputId":"092a060d-b149-4253-c13a-c80f54e0f41a"},"outputs":[{"output_type":"stream","name":"stdout","text":["Función de descarga corregida y lista.\n"]}],"source":["def descargar_metars(estacion, año, mes):\n","    \"\"\"\n","    Descarga reportes METAR de OGIMET para una estación y mes dado.\n","    Usa el endpoint correcto: ogimet.com/cgi-bin/getmetar\n","    Devuelve una lista de strings, uno por reporte.\n","    \"\"\"\n","    from datetime import datetime\n","    import calendar\n","\n","    # Primer y último momento del mes\n","    ultimo_dia = calendar.monthrange(año, mes)[1]\n","    begin = f\"{año}{mes:02d}010000\"\n","    end   = f\"{año}{mes:02d}{ultimo_dia:02d}2359\"\n","\n","    # URL correcta según documentación de OGIMET\n","    url = f\"http://www.ogimet.com/cgi-bin/getmetar?icao={estacion}&begin={begin}&end={end}&lang=eng\"\n","\n","    print(f'Descargando {estacion} {año}-{mes:02d}...')\n","    print(f'  URL: {url}')\n","\n","    try:\n","        respuesta = requests.get(url, timeout=30)\n","    except Exception as e:\n","        print(f'  Error de conexión: {e}')\n","        return []\n","\n","    if respuesta.status_code != 200:\n","        print(f'  Error HTTP {respuesta.status_code}')\n","        return []\n","\n","    # El formato devuelto es CSV: ICAOIND,YEAR,MONTH,DAY,HOUR,MIN,REPORT\n","    # Extraemos solo la columna REPORT (última columna)\n","    metars = []\n","    for linea in respuesta.text.split('\\n'):\n","        linea = linea.strip()\n","        if linea and not linea.startswith('#'):\n","            partes = linea.split(',')\n","            if len(partes) >= 7:\n","                reporte = partes[6].strip()\n","                if reporte.startswith('METAR') or reporte.startswith(estacion):\n","                    metars.append(reporte)\n","\n","    print(f'  {len(metars)} reportes encontrados.')\n","    return metars\n","\n","print('Función de descarga corregida y lista.')"]},{"cell_type":"markdown","id":"h8i9j0k1","metadata":{"id":"h8i9j0k1"},"source":["## Celda 4 — Función de análisis de un día\n","Esta función toma todos los reportes de un día y decide si ese día\n","tuvo la secuencia convectiva que se busca."]},{"cell_type":"code","execution_count":7,"id":"i9j0k1l2","metadata":{"colab":{"base_uri":"https://localhost:8080/"},"id":"i9j0k1l2","executionInfo":{"status":"ok","timestamp":1781136270649,"user_tz":300,"elapsed":16,"user":{"displayName":"Diana Bohórquez","userId":"16851262590754706221"}},"outputId":"1ebbd641-77dd-4ea9-eb84-765beea0c7f0"},"outputs":[{"output_type":"stream","name":"stdout","text":["Funciones de análisis listas.\n"]}],"source":["def clasificar_reporte(metar):\n","    \"\"\"\n","    Clasifica un reporte METAR en una de tres categorías:\n","    - 'despejado'  : cielo limpio o pocas nubes, sin convección\n","    - 'desarrollo' : TCU presente (cumulonimbo en desarrollo)\n","    - 'tormenta'   : CB, TSRA o lluvia fuerte presente\n","    - 'otro'       : no encaja en ninguna categoría relevante\n","    \"\"\"\n","    for clave in CLAVES_TORMENTA:\n","        if clave in metar:\n","            return 'tormenta'\n","    for clave in CLAVES_DESARROLLO:\n","        if clave in metar:\n","            return 'desarrollo'\n","    for clave in CLAVES_DESPEJADO:\n","        if clave in metar:\n","            return 'despejado'\n","    return 'otro'\n","\n","\n","def analizar_dia(reportes_del_dia):\n","    \"\"\"\n","    Recibe una lista de reportes METAR de un mismo día.\n","    Devuelve True si ese día tuvo la secuencia: despejado → tormenta.\n","    También acepta: despejado → desarrollo → tormenta.\n","    \"\"\"\n","    categorias = [clasificar_reporte(r) for r in reportes_del_dia]\n","\n","    tuvo_despejado = 'despejado' in categorias\n","    tuvo_tormenta  = 'tormenta'  in categorias\n","\n","    if not (tuvo_despejado and tuvo_tormenta):\n","        return False, categorias\n","\n","    # Verificar que el despejado ocurrió ANTES de la tormenta\n","    primer_despejado = categorias.index('despejado')\n","    ultimo_tormenta  = len(categorias) - 1 - categorias[::-1].index('tormenta')\n","\n","    secuencia_valida = primer_despejado < ultimo_tormenta\n","    return secuencia_valida, categorias\n","\n","\n","print('Funciones de análisis listas.')"]},{"cell_type":"markdown","id":"j0k1l2m3","metadata":{"id":"j0k1l2m3"},"source":["## Celda 5 — Búsqueda principal\n","Aquí se descarga todo y se identifican los días candidatos."]},{"cell_type":"code","execution_count":8,"id":"k1l2m3n4","metadata":{"colab":{"base_uri":"https://localhost:8080/"},"id":"k1l2m3n4","executionInfo":{"status":"ok","timestamp":1781136294467,"user_tz":300,"elapsed":15833,"user":{"displayName":"Diana Bohórquez","userId":"16851262590754706221"}},"outputId":"4e0e40ff-cf18-4cf9-f34e-b0b4eda8cd4b"},"outputs":[{"output_type":"stream","name":"stdout","text":["Descargando SKBO 2024-03...\n","  URL: http://www.ogimet.com/cgi-bin/getmetar?icao=SKBO&begin=202403010000&end=202403312359&lang=eng\n","  744 reportes encontrados.\n","Descargando SKBO 2024-04...\n","  URL: http://www.ogimet.com/cgi-bin/getmetar?icao=SKBO&begin=202404010000&end=202404302359&lang=eng\n","  721 reportes encontrados.\n","Descargando SKBO 2024-10...\n","  URL: http://www.ogimet.com/cgi-bin/getmetar?icao=SKBO&begin=202410010000&end=202410312359&lang=eng\n","  Error HTTP 501\n","\n","Búsqueda completada.\n","Total de días candidatos encontrados: 22\n"]}],"source":["dias_candidatos = []  # aquí guardamos los días que cumplen la secuencia\n","todos_los_metars = [] # aquí guardamos todos los reportes para análisis posterior\n","\n","for (año, mes) in MESES_A_CONSULTAR:\n","\n","    metars = descargar_metars(ESTACION, año, mes)\n","    todos_los_metars.extend(metars)\n","\n","    # Agrupar reportes por día\n","    # El día está en el timestamp: METAR SKBO DDHHMMZ ...\n","    # Los primeros dos dígitos del timestamp son el día del mes\n","    reportes_por_dia = {}\n","    for metar in metars:\n","        # Extraer el timestamp (ej: '072300Z' -> día '07')\n","        match = re.search(r'SKBO (\\d{2})(\\d{2})(\\d{2})Z', metar)\n","        if match:\n","            dia = int(match.group(1))\n","            fecha = datetime(año, mes, dia)\n","            if fecha not in reportes_por_dia:\n","                reportes_por_dia[fecha] = []\n","            reportes_por_dia[fecha].append(metar)\n","\n","    # Analizar cada día\n","    for fecha, reportes in sorted(reportes_por_dia.items()):\n","        es_candidato, categorias = analizar_dia(reportes)\n","        if es_candidato:\n","            n_reportes   = len(reportes)\n","            n_despejado  = categorias.count('despejado')\n","            n_desarrollo = categorias.count('desarrollo')\n","            n_tormenta   = categorias.count('tormenta')\n","            dias_candidatos.append({\n","                'fecha':       fecha.strftime('%Y-%m-%d'),\n","                'reportes':    n_reportes,\n","                'despejado':   n_despejado,\n","                'desarrollo':  n_desarrollo,\n","                'tormenta':    n_tormenta,\n","                'secuencia':   ' → '.join([c for c in categorias if c != 'otro'])\n","            })\n","\n","    time.sleep(2)  # pausa entre consultas para no saturar el servidor de OGIMET\n","\n","print(f'\\nBúsqueda completada.')\n","print(f'Total de días candidatos encontrados: {len(dias_candidatos)}')"]},{"cell_type":"markdown","id":"l2m3n4o5","metadata":{"id":"l2m3n4o5"},"source":["## Celda 6 — Resultados\n","Tabla con los días candidatos ordenados por intensidad de la secuencia\n","(más horas de tormenta = caso más claro)."]},{"cell_type":"code","execution_count":9,"id":"m3n4o5p6","metadata":{"colab":{"base_uri":"https://localhost:8080/"},"id":"m3n4o5p6","executionInfo":{"status":"ok","timestamp":1781136318549,"user_tz":300,"elapsed":56,"user":{"displayName":"Diana Bohórquez","userId":"16851262590754706221"}},"outputId":"3c5a1e02-0c5c-4126-8027-9f0099328286"},"outputs":[{"output_type":"stream","name":"stdout","text":["Días con secuencia convectiva (despejado → tormenta):\n","======================================================================\n","     fecha  reportes  despejado  desarrollo  tormenta                                                                                                                                                                                                             secuencia\n","2024-03-21        24          2           4         7                                                                tormenta → tormenta → tormenta → desarrollo → despejado → despejado → desarrollo → desarrollo → desarrollo → tormenta → tormenta → tormenta → tormenta\n","2024-04-01        24          2           1         7                                                                                                       despejado → despejado → desarrollo → tormenta → tormenta → tormenta → tormenta → tormenta → tormenta → tormenta\n","2024-04-18        24         13           0         5      despejado → despejado → despejado → despejado → despejado → despejado → despejado → despejado → despejado → despejado → despejado → despejado → despejado → tormenta → tormenta → tormenta → tormenta → tormenta\n","2024-04-03        24          2           2         4                                                                                                                           despejado → despejado → desarrollo → tormenta → tormenta → desarrollo → tormenta → tormenta\n","2024-04-23        24          9           1         4                                                    despejado → despejado → despejado → despejado → despejado → despejado → despejado → despejado → despejado → desarrollo → tormenta → tormenta → tormenta → tormenta\n","2024-03-03        24          3           0         4                                                                                                                                         despejado → despejado → despejado → tormenta → tormenta → tormenta → tormenta\n","2024-04-29        24         11           0         4                                         despejado → despejado → despejado → despejado → despejado → despejado → despejado → despejado → despejado → despejado → despejado → tormenta → tormenta → tormenta → tormenta\n","2024-04-28        24         14           0         3                despejado → despejado → despejado → despejado → despejado → despejado → despejado → despejado → despejado → despejado → despejado → despejado → despejado → tormenta → tormenta → tormenta → despejado\n","2024-04-21        24          5           2         3                                                                                                  tormenta → despejado → despejado → despejado → despejado → tormenta → tormenta → despejado → desarrollo → desarrollo\n","2024-03-20        24         15           0         3    despejado → despejado → despejado → despejado → despejado → despejado → despejado → despejado → despejado → despejado → despejado → despejado → despejado → despejado → despejado → tormenta → tormenta → tormenta\n","2024-04-30        24          9           2         3                                                  despejado → despejado → despejado → despejado → despejado → despejado → despejado → despejado → desarrollo → tormenta → tormenta → tormenta → despejado → desarrollo\n","2024-04-19        25          6           0         2                                                                                                                           despejado → despejado → despejado → despejado → despejado → despejado → tormenta → tormenta\n","2024-03-25        24          4           3         2                                                                                                            tormenta → despejado → despejado → despejado → despejado → desarrollo → desarrollo → desarrollo → tormenta\n","2024-04-27        24          3           3         2                                                                                                                        despejado → desarrollo → tormenta → tormenta → despejado → desarrollo → desarrollo → despejado\n","2024-03-24        24          9           0         1                                                                                                  despejado → despejado → despejado → despejado → despejado → despejado → despejado → despejado → despejado → tormenta\n","2024-03-06        24         16           1         1 despejado → despejado → despejado → despejado → despejado → despejado → despejado → despejado → despejado → despejado → despejado → despejado → despejado → despejado → despejado → despejado → desarrollo → tormenta\n","2024-03-28        24         13           1         1                                     despejado → despejado → despejado → despejado → despejado → despejado → despejado → despejado → despejado → despejado → despejado → despejado → despejado → desarrollo → tormenta\n","2024-04-13        24         11           1         1                                                             despejado → despejado → despejado → despejado → despejado → despejado → despejado → despejado → despejado → despejado → despejado → desarrollo → tormenta\n","2024-04-20        24         12           1         1                                                 despejado → despejado → despejado → despejado → despejado → despejado → despejado → despejado → despejado → despejado → despejado → despejado → desarrollo → tormenta\n","2024-04-15        24          8           1         1                                                                                                 despejado → despejado → despejado → despejado → despejado → despejado → despejado → despejado → desarrollo → tormenta\n","2024-04-26        24         10           2         1                                                            despejado → despejado → despejado → despejado → despejado → despejado → despejado → despejado → despejado → despejado → desarrollo → tormenta → desarrollo\n","2024-04-24        24          9           0         1                                                                                                  despejado → despejado → despejado → despejado → despejado → despejado → despejado → tormenta → despejado → despejado\n","======================================================================\n","\n","Los primeros de la lista son los mejores candidatos:\n","más horas de tormenta = evento convectivo más claro y prolongado.\n"]}],"source":["if len(dias_candidatos) == 0:\n","    print('No se encontraron días candidatos en los meses consultados.')\n","    print('Prueba ampliar MESES_A_CONSULTAR en la Celda 2.')\n","else:\n","    df = pd.DataFrame(dias_candidatos)\n","    df = df.sort_values('tormenta', ascending=False)\n","\n","    print('Días con secuencia convectiva (despejado → tormenta):')\n","    print('=' * 70)\n","    print(df.to_string(index=False))\n","    print('=' * 70)\n","    print()\n","    print('Los primeros de la lista son los mejores candidatos:')\n","    print('más horas de tormenta = evento convectivo más claro y prolongado.')"]},{"cell_type":"markdown","id":"n4o5p6q7","metadata":{"id":"n4o5p6q7"},"source":["## Celda 7 — Ver el detalle de un día candidato\n","Cambia la fecha abajo para ver hora por hora qué pasó ese día."]},{"cell_type":"code","execution_count":10,"id":"o5p6q7r8","metadata":{"colab":{"base_uri":"https://localhost:8080/"},"id":"o5p6q7r8","executionInfo":{"status":"ok","timestamp":1781136444474,"user_tz":300,"elapsed":55,"user":{"displayName":"Diana Bohórquez","userId":"16851262590754706221"}},"outputId":"a7671b8d-eca6-40aa-9939-e65150d3edbe"},"outputs":[{"output_type":"stream","name":"stdout","text":["Reportes del 2024-04-18 (hora UTC):\n","================================================================================\n","00:00 UTC  ☀️               METAR SKBO 180000Z 13007KT 9999 FEW030 17/09 Q1025 NOSIG=\n","01:00 UTC  ☀️               METAR SKBO 180100Z 09004KT 9999 FEW017 15/10 Q1026 NOSIG=\n","02:00 UTC  ☀️               METAR SKBO 180200Z 10005KT 9999 FEW017 15/09 Q1027 NOSIG=\n","03:00 UTC  ☀️               METAR SKBO 180300Z 09004KT 9999 FEW020 14/09 Q1027 NOSIG=\n","04:00 UTC  ☀️               METAR SKBO 180400Z 03005KT 9999 FEW020 12/10 Q1027 NOSIG=\n","05:00 UTC  🌥️               METAR SKBO 180500Z 04004KT 9999 BKN025 13/10 Q1027 NOSIG=\n","06:00 UTC  🌥️               METAR SKBO 180600Z 03005KT 9999 BKN025 12/10 Q1027 NOSIG=\n","07:00 UTC  🌥️               METAR SKBO 180700Z 07004KT 9999 BKN025 12/10 Q1027 NOSIG=\n","08:00 UTC  🌥️               METAR SKBO 180800Z 05003KT 9999 SCT025 11/09 Q1026 NOSIG=\n","09:00 UTC  🌥️               METAR SKBO 180900Z VRB02KT 9999 SCT025 11/09 Q1026 NOSIG=\n","10:00 UTC  🌥️               METAR SKBO 181000Z 05004KT 9999 BKN025 13/10 Q1027 NOSIG=\n","11:00 UTC  🌥️               METAR SKBO 181100Z 06005KT 9999 BKN030 13/10 Q1027 NOSIG=\n","12:00 UTC  ☀️               METAR SKBO 181200Z 05006KT 9999 FEW020 13/10 Q1028 NOSIG=\n","13:00 UTC  ☀️               METAR SKBO 181300Z 07007KT 030V100 9999 FEW020 16/10 Q1029 NOSIG=\n","14:00 UTC  ☀️               METAR SKBO 181400Z 13010KT 040V160 9999 FEW020 18/09 Q1029 NOSIG=\n","15:00 UTC  ☀️               METAR SKBO 181500Z 13010KT 070V150 9999 FEW020 20/09 Q1029 NOSIG=\n","16:00 UTC  🌥️               METAR SKBO 181600Z 11010KT 040V160 9999 BKN020 21/09 Q1028 NOSIG=\n","17:00 UTC  🌥️               METAR SKBO 181700Z 11009KT 030V160 9999 SCT020 21/09 Q1027 NOSIG=\n","18:00 UTC  🌥️               METAR SKBO 181800Z 12010KT 080V150 9999 SCT030 23/09 Q1026 NOSIG=\n","19:00 UTC  ☀️               METAR SKBO 181900Z 10006KT 040V160 9999 FEW030 SCT060 21/09 Q1025 NOSIG=\n","20:00 UTC  ☀️               METAR SKBO 182000Z 15010KT 9999 FEW030 BKN060 22/10 Q1024 NOSIG=\n","21:00 UTC  🌥️               METAR SKBO 182100Z 12006KT 040V160 9999 SCT023 BKN050 21/10 Q1024 NOSIG=\n","22:00 UTC  ☀️               METAR SKBO 182200Z 10006KT 030V150 9999 FEW023 SCT050 BKN080 20/09 Q1024 NOSIG=\n","23:00 UTC  ☀️               METAR SKBO 182300Z 10006KT 070V150 9999 FEW023 SCT040 BKN080 19/10 Q1025 NOSIG=\n","00:00 UTC  🌥️               METAR SKBO 180000Z 03003KT 9999 SCT015 SCT070 14/12 Q1027 REDZ NOSIG=\n","01:00 UTC  ☀️               METAR SKBO 180100Z 33004KT 9999 FEW015 BKN070 14/12 Q1027 TEMPO FM0130 DZ=\n","02:00 UTC  ☀️               METAR SKBO 180200Z 35003KT 9999 FEW015 SCT070 12/11 Q1027 NOSIG=\n","03:00 UTC  ☀️               METAR SKBO 180300Z VRB02KT 9999 FEW015 SCT070 13/12 Q1028 NOSIG=\n","04:00 UTC  ☀️               METAR SKBO 180400Z 30004KT 9999 FEW015 SCT070 14/12 Q1029 NOSIG=\n","05:00 UTC  ☀️               METAR SKBO 180500Z VRB02KT 9999 FEW015 BKN070 12/11 Q1029 NOSIG=\n","06:00 UTC  ☀️               METAR SKBO 180600Z 31003KT 9999 FEW015 BKN070 12/11 Q1027 NOSIG=\n","07:00 UTC  ☀️               METAR SKBO 180700Z 34003KT 9999 FEW015 BKN070 10/10 Q1026 NOSIG=\n","08:00 UTC  ☀️               METAR SKBO 180800Z 34002KT 6000 FEW015 BKN070 10/10 Q1026 NOSIG RMK BR=\n","09:00 UTC  ☀️               METAR SKBO 180900Z 36003KT 5000 BR FEW015 BKN070 10/10 Q1026 NOSIG=\n","10:00 UTC  ☀️               METAR SKBO 181000Z VRB02KT 5000 BR FEW015 BKN070 10/09 Q1026 NOSIG=\n","11:00 UTC  ☀️               METAR SKBO 181100Z VRB02KT 3000 BR FEW012 BKN070 08/08 Q1027 BECMG FM1240 9999 N\n","12:00 UTC  ☀️               METAR SKBO 181200Z 03004KT 3000 BR FEW015 BKN070 12/12 Q1028 BECMG FM1330 7000=\n","13:00 UTC  ☀️               METAR SKBO 181300Z 01003KT 4000 HZ FEW017 SCT070 15/12 Q1029 NOSIG=\n","14:00 UTC  🌥️               METAR SKBO 181400Z 02004KT 6000 SCT020 18/12 Q1029 NOSIG RMK HZ=\n","15:00 UTC  🌥️               METAR SKBO 181500Z 06003KT 6000 BKN020 19/12 Q1028 NOSIG RMK HZ=\n","16:00 UTC  🌥️               METAR SKBO 181600Z 29006KT 6000 BKN020 20/11 Q1028 NOSIG RMK HZ=\n","17:00 UTC  🌥️               METAR SKBO 181700Z 29011KT 4000 HZ BKN020 21/12 Q1027 NOSIG=\n","18:00 UTC  ⛈️  TORMENTA     METAR SKBO 181800Z 24010KT 5000 TS VCSH FEW017CB SCT023 21/13 Q1026 NOSIG RMK CB\n","19:00 UTC  ⛈️  TORMENTA     METAR SKBO 181900Z 24010KT 6000 VCSH FEW015CB SCT023 20/13 Q1025 RETS NOSIG RMK \n","20:00 UTC  ⛈️  TORMENTA     METAR SKBO 182000Z 05006KT 7000 TS VCSH SCT015CB SCT023 17/12 Q1025 TEMPO TSRA R\n","21:00 UTC  ⛈️  TORMENTA     METAR SKBO 182100Z 32011KT 2000 +TSRA BKN012CB 13/13 Q1025 NOSIG=\n","22:00 UTC  ⛈️  TORMENTA     METAR SKBO 182200Z 23004KT 7000 3000SE RA BKN015 SCT070 13/13 Q1025 RETSRA NOSIG\n","23:00 UTC  🌥️               METAR SKBO 182300Z VRB02KT 7000 -DZ BKN015 SCT080 13/13 Q1026 RERA NOSIG=\n","================================================================================\n","Hora Bogotá = Hora UTC - 5h\n"]}],"source":["# Cambia esta fecha por cualquiera de los candidatos de la tabla anterior\n","FECHA_A_REVISAR = '2024-04-18'  # ejemplo: ajusta según los resultados\n","\n","año_r = int(FECHA_A_REVISAR[:4])\n","mes_r = int(FECHA_A_REVISAR[5:7])\n","dia_r = int(FECHA_A_REVISAR[8:10])\n","\n","print(f'Reportes del {FECHA_A_REVISAR} (hora UTC):')\n","print('=' * 80)\n","\n","for metar in todos_los_metars:\n","    match = re.search(r'SKBO (\\d{2})(\\d{2})(\\d{2})Z', metar)\n","    if match:\n","        dia_m = int(match.group(1))\n","        hora  = match.group(2)\n","        if dia_m == dia_r:\n","            # Verificar que es del mes y año correctos\n","            categoria = clasificar_reporte(metar)\n","            etiqueta = {'despejado': '☀️ ', 'desarrollo': '⛅ TCU', 'tormenta': '⛈️  TORMENTA', 'otro': '🌥️ '}\n","            print(f\"{hora}:00 UTC  {etiqueta[categoria]:15}  {metar[:80]}\")\n","\n","print('=' * 80)\n","print('Hora Bogotá = Hora UTC - 5h')"]},{"cell_type":"markdown","id":"p6q7r8s9","metadata":{"id":"p6q7r8s9"},"source":["## Celda 8 — Buscar un día completamente despejado (control)\n","Para el día de contraste (sin lluvia), buscamos días sin ninguna señal convectiva."]},{"cell_type":"code","execution_count":null,"id":"q7r8s9t0","metadata":{"id":"q7r8s9t0"},"outputs":[],"source":["dias_despejados = []\n","\n","for (año, mes) in MESES_A_CONSULTAR:\n","    metars_mes = [m for m in todos_los_metars\n","                  if f'SKBO {str(año)[2:]}' in m or True]  # todos los del loop\n","\n","    # Reagrupar por día para este mes\n","    reportes_por_dia = {}\n","    metars_filtrados = descargar_metars.__code__  # ya los tenemos en todos_los_metars\n","\n","# Usamos directamente todos_los_metars ya descargados\n","reportes_por_dia_global = {}\n","for metar in todos_los_metars:\n","    match = re.search(r'SKBO (\\d{2})(\\d{2})(\\d{2})Z', metar)\n","    if match:\n","        dia = int(match.group(1))\n","        # Identificar mes/año aproximado por posición en la lista\n","        clave = match.group(1)  # solo el día, suficiente para agrupar\n","        if clave not in reportes_por_dia_global:\n","            reportes_por_dia_global[clave] = []\n","        reportes_por_dia_global[clave].append(metar)\n","\n","print('Días sin ninguna señal convectiva (buenos candidatos para día de control):')\n","print('=' * 60)\n","conteo = 0\n","for metar in todos_los_metars:\n","    tiene_conveccion = any(c in metar for c in ['CB', 'TCU', 'TSRA', 'TS', '+RA'])\n","    tiene_lluvia     = any(c in metar for c in ['RA', 'DZ', 'SH'])\n","    if not tiene_conveccion and not tiene_lluvia:\n","        match = re.search(r'SKBO (\\d{6})Z', metar)\n","        if match and match.group(1)[2:4] == '00':  # solo el reporte de medianoche\n","            print(metar[:80])\n","            conteo += 1\n","            if conteo >= 10:\n","                print('... (mostrando primeros 10)')\n","                break\n","print('=' * 60)"]}]}